CORVUS BC1              
1 42847U 17042Y   18205.94398000  .00000301  00000-0  35007-4 0  9991
2 42847  97.5939 107.5038 0010820  72.9246 287.3158 14.91934392 55991
SILU-1 (SILKROAD 1)     
1 42903U 17021F   18205.75593419  .00022985  00000-0  16323-3 0  9992
2 42903  42.7772 100.3592 0013407 213.5644 247.6000 15.73304919 55842
MIRATA                  
1 43015U 17073C   18205.79413910  .00000742  00000-0  63556-4 0  9993
2 43015  97.7042 135.2367 0258597 148.7862 212.9003 14.78193896 36690
MAKERSAT 0              
1 43016U 17073D   18205.77888564  .00000500  00000-0  44349-4 0  9994
2 43016  97.7070 135.3523 0260017 148.9111 212.7786 14.78189210 36686
ASTERIA                 
1 43020U 98067NH  18205.94708564  .00006742  00000-0  87960-4 0  9991
2 43020  51.6401 184.5460 0002191 334.2837  25.8047 15.60008298 38386
DELLINGR (RBLE)         
1 43021U 98067NJ  18205.53077254  .00005719  00000-0  81421-4 0  9991
2 43021  51.6383 188.4823 0001916 321.3810  38.7045 15.57984324 38294
OSIRIS-3U               
1 43027U 98067NL  18205.94504195  .00030199  00000-0  29036-3 0  9994
2 43027  51.6358 179.2232 0002364 332.9045  27.1827 15.66300705 38330
AEROCUBE 7B             
1 43042U 17071F   18205.91297797  .00002753  00000-0  80120-4 0  9998
2 43042  51.6376 217.6992 0005535  44.0226 316.1198 15.39078653 35414
AEROCUBE 7C             
1 43043U 17071G   18205.91293931  .00002726  00000-0  79469-4 0  9999
2 43043  51.6378 217.7040 0005628  46.2920 313.8529 15.39066685 35380
CHEFSAT                 
1 43044U 17071H   18205.83335640  .00003091  00000-0  85922-4 0  9992
2 43044  51.6385 217.1988 0005576  43.7509 316.3917 15.40090950 35384
ASGARDIA 1              
1 43049U 17071N   18205.89048798  .00002323  00000-0  68920-4 0  9994
2 43049  51.6380 217.5615 0003102  64.8557 295.2749 15.39195326 35384
ISARA                   
1 43050U 17071P   18205.90428083  .00004461  00000-0  12022-3 0  9993
2 43050  51.6375 216.9166 0003011  59.4593 300.6689 15.39912347 35398
FAUNA                   
1 43052U 17071R   18205.87559917  .00002159  00000-0  64485-4 0  9995
2 43052  51.6382 217.4713 0002990  61.7968 298.3318 15.39338366 35372
CORVUS BC3              
1 43118U 18004H   18205.80688315  .00000725  00000-0  34560-4 0  9991
2 43118  97.5307 268.4671 0009707 331.6354  28.4353 15.22308982 29435
MICROMAS-2A             
1 43131U 18004W   18205.94961747  .00001545  00000-0  68898-4 0  9996
2 43131  97.5316 268.7534 0008866 335.1584  24.9224 15.22930456 29468
GOMX4-B                 
1 43196U 18015E   18205.84084331  .00000803  00000-0  36258-4 0  9994
2 43196  97.3498 334.0027 0019940  28.7534 331.4798 15.23686973 26267
GOMX4-A                 
1 43197U 18015F   18205.92008139  .00000395  00000-0  19328-4 0  9991
2 43197  97.3513 334.0877 0020348  29.5269  65.2524 15.23696544 26283
1KUNS-PF                
1 43466U 98067NP  18205.93698577  .00009483  00000-0  13865-3 0  9993
2 43466  51.6379 189.6897 0000582  44.4348 315.6690 15.56357255 11574
UBAKUSAT                
1 43467U 98067NQ  18205.36293262  .00007366  00000-0  11031-3 0  9994
2 43467  51.6381 192.6078 0001932 280.6173  79.4600 15.56095266 11491
BATSU-CS1 (IRAZU)       
1 43468U 98067NR  18205.35204442  .00010944  00000-0  15746-3 0  9999
2 43468  51.6379 192.5330 0000717  50.8167 309.2888 15.56610274111472
ENDUROSAT ONE           
1 43551U 98067NZ  18205.36399400  .00008450  00000-0  13143-3 0  9990
2 43551  51.6402 193.3510 0006554   1.6148 358.4865 15.54812963  1712
EQUISAT                 
1 43552U 98067PA  18205.36388169  .00007053  00000-0  11090-3 0  9998
2 43552  51.6408 193.3506 0006137   1.1422 358.9616 15.54815178  1687
